{"type": "FeatureCollection", "features": [ {"type": "Feature", "properties": {"norad_id": 34784, "name": "COSMOS 2251 DEB", "group": "cosmos-2251-debris", "lat": 67.18220803240567, "lon": 15.536921401010023, "alt_km": 671.5042495008183, "timestamp": "2025-12-08T10:52:03.343523+00:00", "meta": {"OBJECT_NAME": "COSMOS 2251 DEB", "OBJECT_ID": "1993-036AAM", "EPOCH": "2025-12-07T16:27:03.804480", "MEAN_MOTION": 14.60745368, "ECCENTRICITY": 0.00495626, "INCLINATION": 74.0071, "RA_OF_ASC_NODE": 334.0299, "ARG_OF_PERICENTER": 144.8378, "MEAN_ANOMALY": 215.6077, "EPHEMERIS_TYPE": 0, "CLASSIFICATION_TYPE": "U", "NORAD_CAT_ID": 34784, "ELEMENT_SET_NO": 999, "REV_AT_EPOCH": 88461, "BSTAR": 0.00082171533, "MEAN_MOTION_DOT": 4.05e-05, "MEAN_MOTION_DDOT": 0}, "tle": {"line1": "1 34784U 93036AAM 25341.68546070  .00004050  00000+0  82172-3 0  9999", "line2": "2 34784  74.0071 334.0299 0049562 144.8378 215.6077 14.60745368884617"}}, "geometry": {"type": "Point", "coordinates": [15.536921401010023, 67.18220803240567]}}, {"type": "Feature", "properties": {"norad_id": 34790, "name": "COSMOS 2251 DEB", "group": "cosmos-2251-debris", "lat": 36.90265924720701, "lon": -96.17872608503777, "alt_km": 799.4802439834293, "timestamp": "2025-12-08T10:52:03.343532+00:00", "meta": {"OBJECT_NAME": "COSMOS 2251 DEB", "OBJECT_ID": "1993-036AAT", "EPOCH": "2025-12-07T19:47:15.828000", "MEAN_MOTION": 14.2460531, "ECCENTRICITY": 0.01006859, "INCLINATION": 74.0548, "RA_OF_ASC_NODE": 252.5555, "ARG_OF_PERICENTER": 315.2523, "MEAN_ANOMALY": 101.1813, "EPHEMERIS_TYPE": 0, "CLASSIFICATION_TYPE": "U", "NORAD_CAT_ID": 34790, "ELEMENT_SET_NO": 999, "REV_AT_EPOCH": 86503, "BSTAR": 0.001337316, "MEAN_MOTION_DOT": 3.25e-05, "MEAN_MOTION_DDOT": 0}, "tle": {"line1": "1 34790U 93036AAT 25341.82448875  .00003250  00000+0  13373-2 0  9993", "line2": "2 34790  74.0548 252.5555 0100685 315.2523 101.1813 14.24605310865036"}}, "geometry": {"type": "Point", "coordinates": [-96.17872608503777, 36.90265924720701]}}, {"type": "Feature", "properties": {"norad_id": 34792, "name": "COSMOS 2251 DEB", "group": "cosmos-2251-debris", "lat": -41.068159013300516, "lon": 12.307534748680363, "alt_km": 706.7414702565748, "timestamp": "2025-12-08T10:52:03.343542+00:00", "meta": {"OBJECT_NAME": "COSMOS 2251 DEB", "OBJECT_ID": "1993-036AAV", "EPOCH": "2025-12-07T17:55:36.271776", "MEAN_MOTION": 14.55893368, "ECCENTRICITY": 0.0012546, "INCLINATION": 74.0172, "RA_OF_ASC_NODE": 179.1842, "ARG_OF_PERICENTER": 272.9545, "MEAN_ANOMALY": 212.063, "EPHEMERIS_TYPE": 0, "CLASSIFICATION_TYPE": "U", "NORAD_CAT_ID": 34792, "ELEMENT_SET_NO": 999, "REV_AT_EPOCH": 87577, "BSTAR": 0.0014568507, "MEAN_MOTION_DOT": 6.38e-05, "MEAN_MOTION_DDOT": 0}, "tle": {"line1": "1 34792U 93036AAV 25341.74694759  .00006380  00000+0  14569-2 0  9995", "line2": "2 34792  74.0172 179.1842 0012546 272.9545 212.0630 14.55893368875772"}}, "geometry": {"type": "Point", "coordinates": [12.307534748680363, -41.068159013300516]}}, {"type": "Feature", "properties": {"norad_id": 34793, "name": "COSMOS 2251 DEB", "group": "cosmos-2251-debris", "lat": -73.86355671373317, "lon": 160.8226292107847, "alt_km": 799.4682992971157, "timestamp": "2025-12-08T10:52:03.343552+00:00", "meta": {"OBJECT_NAME": "COSMOS 2251 DEB", "OBJECT_ID": "1993-036AAW", "EPOCH": "2025-12-07T22:29:39.312384", "MEAN_MOTION": 14.38631363, "ECCENTRICITY": 0.00501169, "INCLINATION": 74.0031, "RA_OF_ASC_NODE": 259.2389, "ARG_OF_PERICENTER": 54.6306, "MEAN_ANOMALY": 64.5918, "EPHEMERIS_TYPE": 0, "CLASSIFICATION_TYPE": "U", "NORAD_CAT_ID": 34793, "ELEMENT_SET_NO": 999, "REV_AT_EPOCH": 87261, "BSTAR": 0.00043242693, "MEAN_MOTION_DOT": 1.318e-05, "MEAN_MOTION_DDOT": 0}, "tle": {"line1": "1 34793U 93036AAW 25341.93726056  .00001318  00000+0  43243-3 0  9991", "line2": "2 34793  74.0031 259.2389 0050116  54.6306  64.5918 14.38631363872613"}}, "geometry": {"type": "Point", "coordinates": [160.8226292107847, -73.86355671373317]}}, {"type": "Feature", "properties": {"norad_id": 34796, "name": "COSMOS 2251 DEB", "group": "cosmos-2251-debris", "lat": -25.619352379255, "lon": 52.275027292823516, "alt_km": 771.1875148922882, "timestamp": "2025-12-08T10:52:03.343562+00:00", "meta": {"OBJECT_NAME": "COSMOS 2251 DEB", "OBJECT_ID": "1993-036AAZ", "EPOCH": "2025-12-07T17:35:44.416608", "MEAN_MOTION": 14.4865249, "ECCENTRICITY": 0.01001489, "INCLINATION": 74.0301, "RA_OF_ASC_NODE": 225.7308, "ARG_OF_PERICENTER": 328.8983, "MEAN_ANOMALY": 87.0781, "EPHEMERIS_TYPE": 0, "CLASSIFICATION_TYPE": "U", "NORAD_CAT_ID": 34796, "ELEMENT_SET_NO": 999, "REV_AT_EPOCH": 87955, "BSTAR": 0.001174251, "MEAN_MOTION_DOT": 4.684e-05, "MEAN_MOTION_DDOT": 0}, "tle": {"line1": "1 34796U 93036AAZ 25341.73315297  .00004684  00000+0  11743-2 0  9991", "line2": "2 34796  74.0301 225.7308 0100148 328.8983  87.0781 14.48652490879556"}}, "geometry": {"type": "Point", "coordinates": [52.275027292823516, -25.619352379255]}}, {"type": "Feature", "properties": {"norad_id": 34797, "name": "COSMOS 2251 DEB", "group": "cosmos-2251-debris", "lat": 57.66426583760416, "lon": 134.96604994316453, "alt_km": 792.1194291724287, "timestamp": "2025-12-08T10:52:03.343572+00:00", "meta": {"OBJECT_NAME": "COSMOS 2251 DEB", "OBJECT_ID": "1993-036ABA", "EPOCH": "2025-12-07T14:36:31.608288", "MEAN_MOTION": 14.42681053, "ECCENTRICITY": 0.00721896, "INCLINATION": 73.9778, "RA_OF_ASC_NODE": 109.5423, "ARG_OF_PERICENTER": 223.8342, "MEAN_ANOMALY": 135.7073, "EPHEMERIS_TYPE": 0, "CLASSIFICATION_TYPE": "U", "NORAD_CAT_ID": 34797, "ELEMENT_SET_NO": 999, "REV_AT_EPOCH": 87341, "BSTAR": 0.0043029007, "MEAN_MOTION_DOT": 0.00014775, "MEAN_MOTION_DDOT": 0}, "tle": {"line1": "1 34797U 93036ABA 25341.60869917  .00014775  00000+0  43029-2 0  9995", "line2": "2 34797  73.9778 109.5423 0072189 223.8342 135.7073 14.42681053873411"}}, "geometry": {"type": "Point", "coordinates": [134.96604994316453, 57.66426583760416]}}, {"type": "Feature", "properties": {"norad_id": 34814, "name": "COSMOS 2251 DEB", "group": "cosmos-2251-debris", "lat": 42.528416429359126, "lon": 138.02160648078106, "alt_km": 763.683783732643, "timestamp": "2025-12-08T10:52:03.343583+00:00", "meta": {"OBJECT_NAME": "COSMOS 2251 DEB", "OBJECT_ID": "1993-036ABD", "EPOCH": "2025-12-07T07:47:38.178816", "MEAN_MOTION": 14.36856941, "ECCENTRICITY": 0.00565736, "INCLINATION": 73.8956, "RA_OF_ASC_NODE": 335.4792, "ARG_OF_PERICENTER": 225.9688, "MEAN_ANOMALY": 197.046, "EPHEMERIS_TYPE": 0, "CLASSIFICATION_TYPE": "U", "NORAD_CAT_ID": 34814, "ELEMENT_SET_NO": 999, "REV_AT_EPOCH": 87255, "BSTAR": 0.0013637601, "MEAN_MOTION_DOT": 4.081e-05, "MEAN_MOTION_DDOT": 0}, "tle": {"line1": "1 34814U 93036ABD 25341.32474744  .00004081  00000+0  13638-2 0  9996", "line2": "2 34814  73.8956 335.4792 0056573 225.9688 197.0460 14.36856941872550"}}, "geometry": {"type": "Point", "coordinates": [138.02160648078106, 42.528416429359126]}}, {"type": "Feature", "properties": {"norad_id": 34815, "name": "COSMOS 2251 DEB", "group": "cosmos-2251-debris", "lat": 13.112071293228901, "lon": -105.96096829399897, "alt_km": 611.0293791141639, "timestamp": "2025-12-08T10:52:03.343593+00:00", "meta": {"OBJECT_NAME": "COSMOS 2251 DEB", "OBJECT_ID": "1993-036ABE", "EPOCH": "2025-12-07T00:41:49.538976", "MEAN_MOTION": 14.78191808, "ECCENTRICITY": 0.0058946, "INCLINATION": 74.046, "RA_OF_ASC_NODE": 253.0121, "ARG_OF_PERICENTER": 323.362, "MEAN_ANOMALY": 36.353, "EPHEMERIS_TYPE": 0, "CLASSIFICATION_TYPE": "U", "NORAD_CAT_ID": 34815, "ELEMENT_SET_NO": 999, "REV_AT_EPOCH": 88543, "BSTAR": 0.0016337289, "MEAN_MOTION_DOT": 0.00012178, "MEAN_MOTION_DDOT": 0}, "tle": {"line1": "1 34815U 93036ABE 25341.02904559  .00012178  00000+0  16337-2 0  9991", "line2": "2 34815  74.0460 253.0121 0058946 323.3620  36.3530 14.78191808885434"}}, "geometry": {"type": "Point", "coordinates": [-105.96096829399897, 13.112071293228901]}}, {"type": "Feature", "properties": {"norad_id": 34816, "name": "COSMOS 2251 DEB", "group": "cosmos-2251-debris", "lat": 14.945963442839293, "lon": 154.5428521248027, "alt_km": 1302.150312748755, "timestamp": "2025-12-08T10:52:03.343603+00:00", "meta": {"OBJECT_NAME": "COSMOS 2251 DEB", "OBJECT_ID": "1993-036ABF", "EPOCH": "2025-12-06T22:26:27.336768", "MEAN_MOTION": 13.5829822, "ECCENTRICITY": 0.03736298, "INCLINATION": 73.886, "RA_OF_ASC_NODE": 152.5929, "ARG_OF_PERICENTER": 218.068, "MEAN_ANOMALY": 297.1187, "EPHEMERIS_TYPE": 0, "CLASSIFICATION_TYPE": "U", "NORAD_CAT_ID": 34816, "ELEMENT_SET_NO": 999, "REV_AT_EPOCH": 82704, "BSTAR": 0.0017880706, "MEAN_MOTION_DOT": 2.026e-05, "MEAN_MOTION_DDOT": 0}, "tle": {"line1": "1 34816U 93036ABF 25340.93503862  .00002026  00000+0  17881-2 0  9999", "line2": "2 34816  73.8860 152.5929 0373629 218.0680 297.1187 13.58298220827040"}}, "geometry": {"type": "Point", "coordinates": [154.5428521248027, 14.945963442839293]}}, {"type": "Feature", "properties": {"norad_id": 34818, "name": "COSMOS 2251 DEB", "group": "cosmos-2251-debris", "lat": -25.247358657723044, "lon": 132.5809348924844, "alt_km": 790.8344037453116, "timestamp": "2025-12-08T10:52:03.343614+00:00", "meta": {"OBJECT_NAME": "COSMOS 2251 DEB", "OBJECT_ID": "1993-036ABH", "EPOCH": "2025-12-06T23:05:29.246784", "MEAN_MOTION": 14.36954587, "ECCENTRICITY": 0.00238961, "INCLINATION": 74.0354, "RA_OF_ASC_NODE": 307.5625, "ARG_OF_PERICENTER": 24.6801, "MEAN_ANOMALY": 33.3633, "EPHEMERIS_TYPE": 0, "CLASSIFICATION_TYPE": "U", "NORAD_CAT_ID": 34818, "ELEMENT_SET_NO": 999, "REV_AT_EPOCH": 87287, "BSTAR": 0.00040038731, "MEAN_MOTION_DOT": 1.164e-05, "MEAN_MOTION_DDOT": 0}, "tle": {"line1": "1 34818U 93036ABH 25340.96214406  .00001164  00000+0  40039-3 0  9991", "line2": "2 34818  74.0354 307.5625 0023896  24.6801  33.3633 14.36954587872871"}}, "geometry": {"type": "Point", "coordinates": [132.5809348924844, -25.247358657723044]}}]}